STARLINK-4491           
1 53408U 22097W   25247.64495272 -.00000476  00000+0 -11845-4 0  9990
2 53408  53.2171 229.3131 0001309  78.0568 282.0571 15.08832001170561
STARLINK-4490           
1 53409U 22097X   25247.63853732 -.00000417  00000+0 -81342-5 0  9994
2 53409  53.2164 219.5283 0001372  89.4182 270.6967 15.08830748170705
STARLINK-4492           
1 53410U 22097Y   25247.64126911 -.00000289  00000+0 -43804-7 0  9999
2 53410  53.2161 229.3250 0001306  91.1153 268.9989 15.08831699170566
STARLINK-4497           
1 53411U 22097Z   25247.64863411 -.00000238  00000+0  31331-5 0  9996
2 53411  53.2172 229.2930 0001295  90.8446 269.2695 15.08828735170566
STARLINK-4496           
1 53412U 22097AA  25247.23279123  .00000805  00000+0  68668-4 0  9994
2 53412  53.2123 231.1579 0001591  93.8310 266.2864 15.08836571170502
STARLINK-4500           
1 53413U 22097AB  25247.37263340 -.00002175  00000+0 -11861-3 0  9990
2 53413  53.2151 230.5295 0001434  94.5992 265.5164 15.08829375170523
STARLINK-4304           
1 53414U 22097AC  25247.36159191 -.00001028  00000+0 -46491-4 0  9992
2 53414  53.2155 230.5801 0001445  96.9266 263.1890 15.08829562170510
STARLINK-4479           
1 53415U 22097AD  25247.88782748  .00000074  00000+0  22729-4 0  9996
2 53415  53.2159 228.2199 0001351  90.9215 269.1932 15.08838394170575
STARLINK-4480           
1 53416U 22097AE  25247.67438318 -.00000474  00000+0 -11705-4 0  9993
2 53416  53.2168 229.1295 0000780  83.1222 276.9859 15.08838802170545
STARLINK-4484           
1 53417U 22097AF  25247.22175281  .00001384  00000+0  10499-3 0  9999
2 53417  53.2144 231.2106 0001482  84.5458 275.5703 15.08845244170474
STARLINK-4481           
1 53418U 22097AG  25247.64581614 -.00000049  00000+0  15032-4 0  9994
2 53418  53.2162 218.8691 0000984  86.7415 273.3690 15.08836703170716
STARLINK-4476           
1 53419U 22097AH  25247.35055166 -.00000738  00000+0 -28285-4 0  9991
2 53419  53.2169 230.6297 0001402  92.3099 267.8054 15.08834845170497
STARLINK-4552           
1 53420U 22097AJ  25247.67071304  .00000123  00000+0  25793-4 0  9997
2 53420  53.2167 229.1925 0001364  86.4825 273.6324 15.08834524170541
STARLINK-4545           
1 53421U 22097AK  25247.67807222 -.00000985  00000+0 -43833-4 0  9997
2 53421  53.2169 229.1598 0001317  84.8727 275.2415 15.08835927170548
STARLINK-4546           
1 53422U 22097AL  25247.66335545 -.00000388  00000+0 -62677-5 0  9996
2 53422  53.2181 229.2255 0001368  86.3729 273.7420 15.08829710170563
STARLINK-4539           
1 53423U 22097AM  25247.67535137 -.00000474  00000+0 -11681-4 0  9991
2 53423  53.2181 229.1833 0001319  85.8496 274.2647 15.08831380170547
