[{"OBJECT_NAME":"STARLINK-4491","OBJECT_ID":"2022-097W","EPOCH":"2025-09-04T15:28:43.915008","MEAN_MOTION":15.08832001,"ECCENTRICITY":0.0001309,"INCLINATION":53.2171,"RA_OF_ASC_NODE":229.3131,"ARG_OF_PERICENTER":78.0568,"MEAN_ANOMALY":282.0571,"EPHEMERIS_TYPE":0,"CLASSIFICATION_TYPE":"U","NORAD_CAT_ID":53408,"ELEMENT_SET_NO":999,"REV_AT_EPOCH":17056,"BSTAR":-1.1845145e-5,"MEAN_MOTION_DOT":-4.76e-6,"MEAN_MOTION_DDOT":0},{"OBJECT_NAME":"STARLINK-4490","OBJECT_ID":"2022-097X","EPOCH":"2025-09-04T15:19:29.624448","MEAN_MOTION":15.08830748,"ECCENTRICITY":0.00013724,"INCLINATION":53.2164,"RA_OF_ASC_NODE":219.5283,"ARG_OF_PERICENTER":89.4182,"MEAN_ANOMALY":270.6967,"EPHEMERIS_TYPE":0,"CLASSIFICATION_TYPE":"U","NORAD_CAT_ID":53409,"ELEMENT_SET_NO":999,"REV_AT_EPOCH":17070,"BSTAR":-8.134186e-6,"MEAN_MOTION_DOT":-4.17e-6,"MEAN_MOTION_DDOT":0},{"OBJECT_NAME":"STARLINK-4492","OBJECT_ID":"2022-097Y","EPOCH":"2025-09-04T15:23:25.651104","MEAN_MOTION":15.08831699,"ECCENTRICITY":0.00013067,"INCLINATION":53.2161,"RA_OF_ASC_NODE":229.325,"ARG_OF_PERICENTER":91.1153,"MEAN_ANOMALY":268.9989,"EPHEMERIS_TYPE":0,"CLASSIFICATION_TYPE":"U","NORAD_CAT_ID":53410,"ELEMENT_SET_NO":999,"REV_AT_EPOCH":17056,"BSTAR":-4.3804e-8,"MEAN_MOTION_DOT":-2.89e-6,"MEAN_MOTION_DDOT":0},{"OBJECT_NAME":"STARLINK-4497","OBJECT_ID":"2022-097Z","EPOCH":"2025-09-04T15:34:01.987104","MEAN_MOTION":15.08828735,"ECCENTRICITY":0.00012959,"INCLINATION":53.2172,"RA_OF_ASC_NODE":229.293,"ARG_OF_PERICENTER":90.8446,"MEAN_ANOMALY":269.2695,"EPHEMERIS_TYPE":0,"CLASSIFICATION_TYPE":"U","NORAD_CAT_ID":53411,"ELEMENT_SET_NO":999,"REV_AT_EPOCH":17056,"BSTAR":3.133071e-6,"MEAN_MOTION_DOT":-2.38e-6,"MEAN_MOTION_DDOT":0},{"OBJECT_NAME":"STARLINK-4496","OBJECT_ID":"2022-097AA","EPOCH":"2025-09-04T05:35:13.162272","MEAN_MOTION":15.08836571,"ECCENTRICITY":0.00015915,"INCLINATION":53.2123,"RA_OF_ASC_NODE":231.1579,"ARG_OF_PERICENTER":93.831,"MEAN_ANOMALY":266.2864,"EPHEMERIS_TYPE":0,"CLASSIFICATION_TYPE":"U","NORAD_CAT_ID":53412,"ELEMENT_SET_NO":999,"REV_AT_EPOCH":17050,"BSTAR":6.86683e-5,"MEAN_MOTION_DOT":8.05e-6,"MEAN_MOTION_DDOT":0},{"OBJECT_NAME":"STARLINK-4500","OBJECT_ID":"2022-097AB","EPOCH":"2025-09-04T08:56:35.525760","MEAN_MOTION":15.08829375,"ECCENTRICITY":0.00014344,"INCLINATION":53.2151,"RA_OF_ASC_NODE":230.5295,"ARG_OF_PERICENTER":94.5992,"MEAN_ANOMALY":265.5164,"EPHEMERIS_TYPE":0,"CLASSIFICATION_TYPE":"U","NORAD_CAT_ID":53413,"ELEMENT_SET_NO":999,"REV_AT_EPOCH":17052,"BSTAR":-0.00011860657,"MEAN_MOTION_DOT":-2.175e-5,"MEAN_MOTION_DDOT":0},{"OBJECT_NAME":"STARLINK-4304","OBJECT_ID":"2022-097AC","EPOCH":"2025-09-04T08:40:41.541024","MEAN_MOTION":15.08829562,"ECCENTRICITY":0.00014454,"INCLINATION":53.2155,"RA_OF_ASC_NODE":230.5801,"ARG_OF_PERICENTER":96.9266,"MEAN_ANOMALY":263.189,"EPHEMERIS_TYPE":0,"CLASSIFICATION_TYPE":"U","NORAD_CAT_ID":53414,"ELEMENT_SET_NO":999,"REV_AT_EPOCH":17051,"BSTAR":-4.6490921e-5,"MEAN_MOTION_DOT":-1.028e-5,"MEAN_MOTION_DDOT":0},{"OBJECT_NAME":"STARLINK-4479","OBJECT_ID":"2022-097AD","EPOCH":"2025-09-04T21:18:28.294272","MEAN_MOTION":15.08838394,"ECCENTRICITY":0.00013514,"INCLINATION":53.2159,"RA_OF_ASC_NODE":228.2199,"ARG_OF_PERICENTER":90.9215,"MEAN_ANOMALY":269.1932,"EPHEMERIS_TYPE":0,"CLASSIFICATION_TYPE":"U","NORAD_CAT_ID":53415,"ELEMENT_SET_NO":999,"REV_AT_EPOCH":17057,"BSTAR":2.2729352e-5,"MEAN_MOTION_DOT":7.4e-7,"MEAN_MOTION_DDOT":0},{"OBJECT_NAME":"STARLINK-4480","OBJECT_ID":"2022-097AE","EPOCH":"2025-09-04T16:11:06.706752","MEAN_MOTION":15.08838802,"ECCENTRICITY":7.808e-5,"INCLINATION":53.2168,"RA_OF_ASC_NODE":229.1295,"ARG_OF_PERICENTER":83.1222,"MEAN_ANOMALY":276.9859,"EPHEMERIS_TYPE":0,"CLASSIFICATION_TYPE":"U","NORAD_CAT_ID":53416,"ELEMENT_SET_NO":999,"REV_AT_EPOCH":17054,"BSTAR":-1.1704552e-5,"MEAN_MOTION_DOT":-4.74e-6,"MEAN_MOTION_DDOT":0},{"OBJECT_NAME":"STARLINK-4484","OBJECT_ID":"2022-097AF","EPOCH":"2025-09-04T05:19:19.442784","MEAN_MOTION":15.08845244,"ECCENTRICITY":0.00014821,"INCLINATION":53.2144,"RA_OF_ASC_NODE":231.2106,"ARG_OF_PERICENTER":84.5458,"MEAN_ANOMALY":275.5703,"EPHEMERIS_TYPE":0,"CLASSIFICATION_TYPE":"U","NORAD_CAT_ID":53417,"ELEMENT_SET_NO":999,"REV_AT_EPOCH":17047,"BSTAR":0.0001049915,"MEAN_MOTION_DOT":1.384e-5,"MEAN_MOTION_DDOT":0},{"OBJECT_NAME":"STARLINK-4481","OBJECT_ID":"2022-097AG","EPOCH":"2025-09-04T15:29:58.514496","MEAN_MOTION":15.08836703,"ECCENTRICITY":9.842e-5,"INCLINATION":53.2162,"RA_OF_ASC_NODE":218.8691,"ARG_OF_PERICENTER":86.7415,"MEAN_ANOMALY":273.369,"EPHEMERIS_TYPE":0,"CLASSIFICATION_TYPE":"U","NORAD_CAT_ID":53418,"ELEMENT_SET_NO":999,"REV_AT_EPOCH":17071,"BSTAR":1.5032482e-5,"MEAN_MOTION_DOT":-4.9e-7,"MEAN_MOTION_DDOT":0},{"OBJECT_NAME":"STARLINK-4476","OBJECT_ID":"2022-097AH","EPOCH":"2025-09-04T08:24:47.663424","MEAN_MOTION":15.08834845,"ECCENTRICITY":0.00014023,"INCLINATION":53.2169,"RA_OF_ASC_NODE":230.6297,"ARG_OF_PERICENTER":92.3099,"MEAN_ANOMALY":267.8054,"EPHEMERIS_TYPE":0,"CLASSIFICATION_TYPE":"U","NORAD_CAT_ID":53419,"ELEMENT_SET_NO":999,"REV_AT_EPOCH":17049,"BSTAR":-2.8284748e-5,"MEAN_MOTION_DOT":-7.38e-6,"MEAN_MOTION_DDOT":0},{"OBJECT_NAME":"STARLINK-4552","OBJECT_ID":"2022-097AJ","EPOCH":"2025-09-04T16:05:49.606656","MEAN_MOTION":15.08834524,"ECCENTRICITY":0.00013645,"INCLINATION":53.2167,"RA_OF_ASC_NODE":229.1925,"ARG_OF_PERICENTER":86.4825,"MEAN_ANOMALY":273.6324,"EPHEMERIS_TYPE":0,"CLASSIFICATION_TYPE":"U","NORAD_CAT_ID":53420,"ELEMENT_SET_NO":999,"REV_AT_EPOCH":17054,"BSTAR":2.5793375e-5,"MEAN_MOTION_DOT":1.23e-6,"MEAN_MOTION_DDOT":0},{"OBJECT_NAME":"STARLINK-4545","OBJECT_ID":"2022-097AK","EPOCH":"2025-09-04T16:16:25.439808","MEAN_MOTION":15.08835927,"ECCENTRICITY":0.00013178,"INCLINATION":53.2169,"RA_OF_ASC_NODE":229.1598,"ARG_OF_PERICENTER":84.8727,"MEAN_ANOMALY":275.2415,"EPHEMERIS_TYPE":0,"CLASSIFICATION_TYPE":"U","NORAD_CAT_ID":53421,"ELEMENT_SET_NO":999,"REV_AT_EPOCH":17054,"BSTAR":-4.3832894e-5,"MEAN_MOTION_DOT":-9.85e-6,"MEAN_MOTION_DDOT":0},{"OBJECT_NAME":"STARLINK-4546","OBJECT_ID":"2022-097AL","EPOCH":"2025-09-04T15:55:13.910880","MEAN_MOTION":15.0882971,"ECCENTRICITY":0.00013689,"INCLINATION":53.2181,"RA_OF_ASC_NODE":229.2255,"ARG_OF_PERICENTER":86.3729,"MEAN_ANOMALY":273.742,"EPHEMERIS_TYPE":0,"CLASSIFICATION_TYPE":"U","NORAD_CAT_ID":53422,"ELEMENT_SET_NO":999,"REV_AT_EPOCH":17056,"BSTAR":-6.267661e-6,"MEAN_MOTION_DOT":-3.88e-6,"MEAN_MOTION_DDOT":0},{"OBJECT_NAME":"STARLINK-4539","OBJECT_ID":"2022-097AM","EPOCH":"2025-09-04T16:12:30.358368","MEAN_MOTION":15.0883138,"ECCENTRICITY":0.00013191,"INCLINATION":53.2181,"RA_OF_ASC_NODE":229.1833,"ARG_OF_PERICENTER":85.8496,"MEAN_ANOMALY":274.2647,"EPHEMERIS_TYPE":0,"CLASSIFICATION_TYPE":"U","NORAD_CAT_ID":53423,"ELEMENT_SET_NO":999,"REV_AT_EPOCH":17054,"BSTAR":-1.1680845e-5,"MEAN_MOTION_DOT":-4.74e-6,"MEAN_MOTION_DDOT":0}]
